[{"OBJECT_NAME":"STARLINK-31937","OBJECT_ID":"2024-098P","EPOCH":"2026-03-09T12:57:36.811296","MEAN_MOTION":15.27569362,"ECCENTRICITY":9.63e-5,"INCLINATION":43.0016,"RA_OF_ASC_NODE":271.8857,"ARG_OF_PERICENTER":267.4431,"MEAN_ANOMALY":92.631,"EPHEMERIS_TYPE":0,"CLASSIFICATION_TYPE":"U","NORAD_CAT_ID":59871,"ELEMENT_SET_NO":999,"REV_AT_EPOCH":10190,"BSTAR":-3.6278693e-5,"MEAN_MOTION_DOT":-1.26e-5,"MEAN_MOTION_DDOT":0},{"OBJECT_NAME":"FLOCK 4G-15","OBJECT_ID":"2025-009BX","EPOCH":"2026-03-09T17:13:37.807680","MEAN_MOTION":15.27266411,"ECCENTRICITY":0.00036988,"INCLINATION":97.4054,"RA_OF_ASC_NODE":151.1927,"ARG_OF_PERICENTER":316.8208,"MEAN_ANOMALY":43.274,"EPHEMERIS_TYPE":0,"CLASSIFICATION_TYPE":"U","NORAD_CAT_ID":62678,"ELEMENT_SET_NO":999,"REV_AT_EPOCH":12135,"BSTAR":0.00047574812,"MEAN_MOTION_DOT":0.00012647,"MEAN_MOTION_DDOT":0}]
